IRIDIUM 116             
1 43072U 17083C   25205.44249009  .00000066  00000+0  16541-4 0  9993
2 43072  86.3952  99.0391 0001987  90.3425 269.7999 14.34217868397194
IRIDIUM 130             
1 43073U 17083D   25205.41077599  .00000115  00000+0  33976-4 0  9990
2 43073  86.3962  99.2959 0001777  86.7027 273.4372 14.34218405397131
IRIDIUM 151             
1 43074U 17083E   25205.45517522  .00000050  00000+0  10853-4 0  9997
2 43074  86.3956  99.0844 0002034  91.1246 269.0182 14.34217840397161
IRIDIUM 134             
1 43075U 17083F   25205.63276750  .00000073  00000+0  19078-4 0  9996
2 43075  86.3954  99.0136 0001869  85.1142 275.0267 14.34217983397155
IRIDIUM 137             
1 43076U 17083G   25205.64545353  .00000057  00000+0  13233-4 0  9995
2 43076  86.3957  99.0944 0002300 101.6558 258.4896 14.34217825397228
IRIDIUM 141             
1 43077U 17083H   25205.63911031  .00000055  00000+0  12740-4 0  9995
2 43077  86.3953  98.9463 0002294  80.9095 279.2360 14.34218324397228
IRIDIUM 153             
1 43078U 17083J   25205.59128937  .00000076  00000+0  19979-4 0  9990
2 43078  86.3928  67.4233 0002305  75.5521 284.5930 14.34217979398323
IRIDIUM 131             
1 43079U 17083K   25205.62642618  .00000059  00000+0  14074-4 0  9994
2 43079  86.3959  99.1158 0002350  84.7284 275.4180 14.34217869397158
